NORAD_CAT_ID,OBJECT_NAME,OBJECT_TYPE,EPOCH,MEAN_MOTION,ECCENTRICITY,INCLINATION,RA_OF_ASC_NODE,ARG_OF_PERICENTER,MEAN_ANOMALY,BSTAR,MEAN_MOTION_DOT,MEAN_MOTION_DDOT,TLE_LINE0,TLE_LINE1,TLE_LINE2,SEMIMAJOR_AXIS,PERIOD,APOGEE,PERIGEE,DECAYED
50814.0,STARLINK-3324,PAYLOAD,2024-07-06 13:48:43,15.08848802,0.0002197,53.2158,32.5177,86.943,273.1813,0.00045122,6.902e-05,0.0,0 STARLINK-3324,1 50814U 22001M   24188.57550713  .00006902  00000-0  45122-3 0  9993,2 50814  53.2158  32.5177 0002197  86.9430 273.1813 15.08848802139426,6917.853,95.437,541.238,538.199,0.0
50814.0,STARLINK-3324,PAYLOAD,2024-07-06 20:10:16,15.088348,0.0001499,53.219,31.3294,95.5987,264.5176,-1.9419e-05,-5.97e-06,0.0,0 STARLINK-3324,1 50814U 22001M   24188.84047027 -.00000597  00000-0 -19419-4 0  9999,2 50814  53.2190  31.3294 0001499  95.5987 264.5176 15.08834800139469,6917.896,95.438,540.798,538.724,0.0
50814.0,STARLINK-3324,PAYLOAD,2024-07-06 23:21:02,15.08837736,0.000131,53.2172,30.7334,90.8765,269.2377,7.1898e-05,8.56e-06,0.0,0 STARLINK-3324,1 50814U 22001M   24188.97294931  .00000856  00000-0  71898-4 0  9996,2 50814  53.2172  30.7334 0001310  90.8765 269.2377 15.08837736138219,6917.887,95.438,540.659,538.846,0.0
50814.0,STARLINK-3324,PAYLOAD,2024-07-07 20:01:03,15.08842445,0.0001298,53.2178,26.8683,90.9721,269.142,0.0002386,3.512e-05,0.0,0 STARLINK-3324,1 50814U 22001M   24189.83407045  .00003512  00000-0  23860-3 0  9991,2 50814  53.2178  26.8683 0001298  90.9721 269.1420 15.08842445139612,6917.873,95.437,540.636,538.84,0.0
50814.0,STARLINK-3324,PAYLOAD,2024-07-08 19:51:50,15.0884379,0.0001165,53.2173,22.4083,83.1972,276.9152,0.00019127,2.758e-05,0.0,0 STARLINK-3324,1 50814U 22001M   24190.82767040  .00002758  00000-0  19127-3 0  9998,2 50814  53.2173  22.4083 0001165  83.1972 276.9152 15.08843790138495,6917.869,95.437,540.54,538.928,0.0
50814.0,STARLINK-3324,PAYLOAD,2024-07-09 13:21:05,15.08828759,0.0001233,53.2178,19.1386,88.6348,271.4785,-0.00016556,-2.921e-05,0.0,0 STARLINK-3324,1 50814U 22001M   24191.55631503 -.00002921  00000-0 -16556-3 0  9990,2 50814  53.2178  19.1386 0001233  88.6348 271.4785 15.08828759139875,6917.915,95.438,540.633,538.927,0.0
50814.0,STARLINK-3324,PAYLOAD,2024-07-09 18:07:14,15.08831537,0.0001294,53.2179,18.2476,97.9604,262.1535,-0.00010883,-2.019e-05,0.0,0 STARLINK-3324,1 50814U 22001M   24191.75503452 -.00002019  00000-0 -10883-3 0  9998,2 50814  53.2179  18.2476 0001294  97.9604 262.1535 15.08831537138632,6917.906,95.438,540.666,538.876,0.0
50814.0,STARLINK-3324,PAYLOAD,2024-07-10 05:14:56,15.08838092,0.0001312,53.2184,16.1668,99.0918,261.0222,5.2454e-05,5.47e-06,0.0,0 STARLINK-3324,1 50814U 22001M   24192.21871356  .00000547  00000-0  52454-4 0  9994,2 50814  53.2184  16.1668 0001312  99.0918 261.0222 15.08838092139972,6917.886,95.438,540.659,538.844,0.0
50814.0,STARLINK-3324,PAYLOAD,2024-07-10 11:36:29,15.08838565,0.0001329,53.2187,14.9773,99.0039,261.1104,0.00011143,1.486e-05,0.0,0 STARLINK-3324,1 50814U 22001M   24192.48367456  .00001486  00000-0  11143-3 0  9996,2 50814  53.2187  14.9773 0001329  99.0039 261.1104 15.08838565138749,6917.885,95.438,540.669,538.83,0.0
50814.0,STARLINK-3324,PAYLOAD,2024-07-11 11:27:16,15.08844326,0.000132,53.2187,10.5166,96.7116,263.4026,0.0003941,5.99e-05,0.0,0 STARLINK-3324,1 50814U 22001M   24193.47727477  .00005990  00000-0  39410-3 0  9990,2 50814  53.2187  10.5166 0001320  96.7116 263.4026 15.08844326138894,6917.867,95.437,540.645,538.819,0.0
50814.0,STARLINK-3324,PAYLOAD,2024-07-12 11:18:03,15.0884029,0.0001663,53.2161,6.055,76.4499,283.6679,5.5526e-05,5.96e-06,0.0,0 STARLINK-3324,1 50814U 22001M   24194.47087513  .00000596  00000-0  55526-4 0  9995,2 50814  53.2161   6.0550 0001663  76.4499 283.6679 15.08840290140316,6917.88,95.438,540.895,538.594,0.0
50814.0,STARLINK-3324,PAYLOAD,2024-07-12 17:39:36,15.08838341,0.0001398,53.2155,4.8635,77.3111,282.8037,3.1265e-05,2.1e-06,0.0,0 STARLINK-3324,1 50814U 22001M   24194.73583598  .00000210  00000-0  31265-4 0  9995,2 50814  53.2155   4.8635 0001398  77.3111 282.8037 15.08838341139080,6917.885,95.438,540.718,538.783,0.0
50814.0,STARLINK-3324,PAYLOAD,2024-07-13 14:19:36,15.08842446,0.000141,53.2168,0.9953,93.4459,266.6694,0.00017294,2.466e-05,0.0,0 STARLINK-3324,1 50814U 22001M   24195.59695524  .00002466  00000-0  17294-3 0  9993,2 50814  53.2168   0.9953 0001410  93.4459 266.6694 15.08842446139218,6917.873,95.437,540.713,538.762,0.0
50814.0,STARLINK-3324,PAYLOAD,2024-07-13 17:30:23,15.08841575,0.0001369,53.2168,0.4017,82.4744,277.6404,0.00018361,2.636e-05,0.0,0 STARLINK-3324,1 50814U 22001M   24195.72943674  .00002636  00000-0  18361-3 0  9995,2 50814  53.2168   0.4017 0001369  82.4744 277.6404 15.08841575140509,6917.876,95.437,540.688,538.794,0.0
50814.0,STARLINK-3324,PAYLOAD,2024-07-14 14:10:24,15.08848605,0.0001355,53.217,356.5378,79.5241,280.5904,0.00053899,8.302e-05,0.0,0 STARLINK-3324,1 50814U 22001M   24196.59055758  .00008302  00000-0  53899-3 0  9999,2 50814  53.2170 356.5378 0001355  79.5241 280.5904 15.08848605139362,6917.854,95.437,540.656,538.782,0.0
50814.0,STARLINK-3324,PAYLOAD,2024-07-14 17:21:10,15.08850546,0.0001354,53.2176,355.9423,84.8587,275.256,0.00059251,9.157e-05,0.0,0 STARLINK-3324,1 50814U 22001M   24196.72303690  .00009157  00000-0  59251-3 0  9992,2 50814  53.2176 355.9423 0001354  84.8587 275.2560 15.08850546139381,6917.848,95.437,540.65,538.776,0.0
50814.0,STARLINK-3324,PAYLOAD,2024-07-15 10:50:24,15.08845279,0.0001304,53.2179,352.671,83.2887,276.8253,0.00018688,2.688e-05,0.0,0 STARLINK-3324,1 50814U 22001M   24197.45167617  .00002688  00000-0  18688-3 0  9991,2 50814  53.2179 352.6710 0001304  83.2887 276.8253 15.08845279140765,6917.864,95.437,540.631,538.827,0.0
50814.0,STARLINK-3324,PAYLOAD,2024-07-15 14:01:11,15.08837452,0.0001278,53.2177,352.0754,84.275,275.8388,0.00010829,1.436e-05,0.0,0 STARLINK-3324,1 50814U 22001M   24197.58415931  .00001436  00000-0  10829-3 0  9999,2 50814  53.2177 352.0754 0001278  84.2750 275.8388 15.08837452139518,6917.888,95.438,540.637,538.869,0.0
50814.0,STARLINK-3324,PAYLOAD,2024-07-15 17:11:58,15.08830234,0.0001205,53.218,351.481,87.0598,273.0532,0.00024056,3.542e-05,0.0,0 STARLINK-3324,1 50814U 22001M   24197.71664407  .00003542  00000-0  24056-3 0  9995,2 50814  53.2180 351.4810 0001205  87.0598 273.0532 15.08830234140805,6917.91,95.438,540.609,538.942,0.0
50814.0,STARLINK-3324,PAYLOAD,2024-07-16 02:44:15,15.08850701,0.0001309,53.2187,349.699,88.8509,271.2633,0.00018961,2.732e-05,0.0,0 STARLINK-3324,1 50814U 22001M   24198.11407102  .00002732  00000-0  18961-3 0  9995,2 50814  53.2187 349.6990 0001309  88.8509 271.2633 15.08850701140865,6917.848,95.437,540.618,538.807,0.0
50814.0,STARLINK-3324,PAYLOAD,2024-07-16 10:41:12,15.08832822,0.0001594,53.2179,348.2113,96.3232,263.7942,-9.7637e-05,-1.841e-05,0.0,0 STARLINK-3324,1 50814U 22001M   24198.44528096 -.00001841  00000-0 -97637-4 0  9997,2 50814  53.2179 348.2113 0001594  96.3232 263.7942 15.08832822140910,6917.902,95.438,540.87,538.665,0.0
50814.0,STARLINK-3324,PAYLOAD,2024-07-16 13:51:58,15.08839191,0.0001348,53.2185,347.6149,105.5478,254.5663,1.4003e-05,-6.5e-07,0.0,0 STARLINK-3324,1 50814U 22001M   24198.57776006 -.00000065  00000-0  14003-4 0  9999,2 50814  53.2185 347.6149 0001348 105.5478 254.5663 15.08839191139665,6917.883,95.438,540.68,538.815,0.0
50814.0,STARLINK-3324,PAYLOAD,2024-07-16 17:02:44,15.08840085,0.0001279,53.2189,347.0206,102.7926,257.3209,2.5139e-05,1.12e-06,0.0,0 STARLINK-3324,1 50814U 22001M   24198.71023914  .00000112  00000-0  25139-4 0  9992,2 50814  53.2189 347.0206 0001279 102.7926 257.3209 15.08840085139680,6917.88,95.438,540.63,538.86,0.0
50814.0,STARLINK-3324,PAYLOAD,2024-07-17 13:42:45,15.08835661,0.0001342,53.2188,343.1553,104.6425,255.4716,0.0001208,1.635e-05,0.0,0 STARLINK-3324,1 50814U 22001M   24199.57136315  .00001635  00000-0  12080-3 0  9998,2 50814  53.2188 343.1553 0001342 104.6425 255.4716 15.08835661141080,6917.894,95.438,540.687,538.83,0.0
50814.0,STARLINK-3324,PAYLOAD,2024-07-17 16:53:32,15.08834567,0.0001296,53.2185,342.5614,100.7542,259.3596,7.5456e-05,9.13e-06,0.0,0 STARLINK-3324,1 50814U 22001M   24199.70384345  .00000913  00000-0  75456-4 0  9996,2 50814  53.2185 342.5614 0001296 100.7542 259.3596 15.08834567139836,6917.897,95.438,540.659,538.865,0.0
50814.0,STARLINK-3324,PAYLOAD,2024-07-18 13:33:33,15.08824673,0.0001232,53.2181,338.6954,103.6317,256.4812,0.00040814,6.211e-05,0.0,0 STARLINK-3324,1 50814U 22001M   24200.56497326  .00006211  00000-0  40814-3 0  9993,2 50814  53.2181 338.6954 0001232 103.6317 256.4812 15.08824673141230,6917.927,95.439,540.645,538.94,0.0
50814.0,STARLINK-3324,PAYLOAD,2024-07-18 16:44:18,15.08865513,0.000123,53.2183,338.1005,91.3584,268.7549,0.00051799,7.971e-05,0.0,0 STARLINK-3324,1 50814U 22001M   24200.69743446  .00007971  00000-0  51799-3 0  9992,2 50814  53.2183 338.1005 0001230  91.3584 268.7549 15.08865513141254,6917.802,95.436,540.518,538.817,0.0
50814.0,STARLINK-3324,PAYLOAD,2024-07-19 13:24:20,15.08825005,0.0001187,53.2182,334.2363,67.7516,292.3602,-0.00016051,-2.84e-05,0.0,0 STARLINK-3324,1 50814U 22001M   24201.55856695 -.00002840  00000-0 -16051-3 0  9993,2 50814  53.2182 334.2363 0001187  67.7516 292.3602 15.08825005141389,6917.926,95.439,540.612,538.97,0.0
50814.0,STARLINK-3324,PAYLOAD,2024-07-19 14:59:43,15.08826042,0.0001174,53.2189,333.9385,71.0962,289.0157,-2.2571e-05,-6.47e-06,0.0,0 STARLINK-3324,1 50814U 22001M   24201.62481364 -.00000647  00000-0 -22571-4 0  9996,2 50814  53.2189 333.9385 0001174  71.0962 289.0157 15.08826042140126,6917.923,95.438,540.6,538.976,0.0
50814.0,STARLINK-3324,PAYLOAD,2024-07-20 02:07:25,15.08834849,0.0001212,53.2189,331.8537,81.0931,279.0198,6.5932e-05,7.61e-06,0.0,0 STARLINK-3324,1 50814U 22001M   24202.08848755  .00000761  00000-0  65932-4 0  9991,2 50814  53.2189 331.8537 0001212  81.0931 279.0198 15.08834849141468,6917.896,95.438,540.6,538.923,0.0
